[{"OBJECT_NAME":"STARLINK-31931","OBJECT_ID":"2024-098G","EPOCH":"2026-03-09T23:01:51.686400","MEAN_MOTION":15.2756989,"ECCENTRICITY":0.00010586,"INCLINATION":43.0021,"RA_OF_ASC_NODE":276.797,"ARG_OF_PERICENTER":235.6554,"MEAN_ANOMALY":124.4198,"EPHEMERIS_TYPE":0,"CLASSIFICATION_TYPE":"U","NORAD_CAT_ID":59864,"ELEMENT_SET_NO":999,"REV_AT_EPOCH":10188,"BSTAR":2.7684931e-5,"MEAN_MOTION_DOT":5.0e-6,"MEAN_MOTION_DDOT":0},{"OBJECT_NAME":"PUCP-SAT 1","OBJECT_ID":"2013-066AC","EPOCH":"2026-03-09T22:02:13.763904","MEAN_MOTION":15.29426022,"ECCENTRICITY":0.00136836,"INCLINATION":97.5787,"RA_OF_ASC_NODE":61.0032,"ARG_OF_PERICENTER":300.1183,"MEAN_ANOMALY":59.87,"EPHEMERIS_TYPE":0,"CLASSIFICATION_TYPE":"U","NORAD_CAT_ID":39442,"ELEMENT_SET_NO":999,"REV_AT_EPOCH":66907,"BSTAR":0.00088755185,"MEAN_MOTION_DOT":0.00025373,"MEAN_MOTION_DDOT":0}]
